$$SOE
2460728.500000000, A.D. 2025-Feb-22 00:00:00.0000, -3.668417231153628E+08, -2.379705416526307E+08, 6.549740104088756E+07,
2460735.500000000, A.D. 2025-Mar-01 00:00:00.0000, -3.597084665388426E+08, -2.459850913037980E+08, 6.612200334011094E+07,
2460742.500000000, A.D. 2025-Mar-08 00:00:00.0000, -3.523712804186624E+08, -2.538602382416367E+08, 6.670911775967803E+07,
2460749.500000000, A.D. 2025-Mar-15 00:00:00.0000, -3.448324393025687E+08, -2.615901605886573E+08, 6.725805499358289E+07,
2460756.500000000, A.D. 2025-Mar-22 00:00:00.0000, -3.370944035342686E+08, -2.691690264210699E+08, 6.776813977884516E+07,
2460763.500000000, A.D. 2025-Mar-29 00:00:00.0000, -3.291598239002413E+08, -2.765910017064340E+08, 6.823871205403493E+07,
2460770.500000000, A.D. 2025-Apr-05 00:00:00.0000, -3.210315444077700E+08, -2.838502576922293E+08, 6.866912807223594E+07,
2460777.500000000, A.D. 2025-Apr-12 00:00:00.0000, -3.127126050970828E+08, -2.909409776396349E+08, 6.905876165162084E+07,
2460784.500000000, A.D. 2025-Apr-19 00:00:00.0000, -3.042062450491924E+08, -2.978573637799103E+08, 6.940700550576274E+07,
2460791.500000000, A.D. 2025-Apr-26 00:00:00.0000, -2.955159052903351E+08, -3.045936446913742E+08, 6.971327260842356E+07,
2460798.500000000, A.D. 2025-May-03 00:00:00.0000, -2.866452314508834E+08, -3.111440830722220E+08, 6.997699757993123E+07,
2460805.500000000, A.D. 2025-May-10 00:00:00.0000, -2.775980761215542E+08, -3.175029838944480E+08, 7.019763808928302E+07,
2460812.500000000, A.D. 2025-May-17 00:00:00.0000, -2.683785008422367E+08, -3.236647029728906E+08, 7.037467626156297E+07,
2460819.500000000, A.D. 2025-May-24 00:00:00.0000, -2.589907775225250E+08, -3.296236559949565E+08, 7.050762006676394E+07,
2460826.500000000, A.D. 2025-May-31 00:00:00.0000, -2.494393888497587E+08, -3.353743276882512E+08, 7.059600467347956E+07,
2460833.500000000, A.D. 2025-Jun-07 00:00:00.0000, -2.397290280589135E+08, -3.409112799060810E+08, 7.063939389858541E+07,
2460840.500000000, A.D. 2025-Jun-14 00:00:00.0000, -2.298646004014932E+08, -3.462291592792670E+08, 7.063738191045743E+07,
2460847.500000000, A.D. 2025-Jun-21 00:00:00.0000, -2.198512250693674E+08, -3.513227076858237E+08, 7.058959480168132E+07,
2460854.500000000, A.D. 2025-Jun-28 00:00:00.0000, -2.096942344200677E+08, -3.561867737525234E+08, 7.049569188368058E+07,
2460861.500000000, A.D. 2025-Jul-05 00:00:00.0000, -1.993991719963569E+08, -3.608163232067128E+08, 7.035536701336780E+07,
2460868.500000000, A.D. 2025-Jul-12 00:00:00.0000, -1.889717905075462E+08, -3.652064488545505E+08, 7.016834998916659E+07,
2460875.500000000, A.D. 2025-Jul-19 00:00:00.0000, -1.784180495601246E+08, -3.693523807287050E+08, 6.993440794527818E+07,
2460882.500000000, A.D. 2025-Jul-26 00:00:00.0000, -1.677441129060883E+08, -3.732494964280301E+08, 6.965334671323553E+07,
2460889.500000000, A.D. 2025-Aug-02 00:00:00.0000, -1.569563451239667E+08, -3.768933315919390E+08, 6.932501213950172E+07,
2460896.500000000, A.D. 2025-Aug-09 00:00:00.0000, -1.460613076923702E+08, -3.802795904865156E+08, 6.894929134896402E+07,
2460903.500000000, A.D. 2025-Aug-16 00:00:00.0000, -1.350657543653517E+08, -3.834041567254978E+08, 6.852611393529640E+07,
2460910.500000000, A.D. 2025-Aug-23 00:00:00.0000, -1.239766255460586E+08, -3.862631040671192E+08, 6.805545304575780E+07,
2460917.500000000, A.D. 2025-Aug-30 00:00:00.0000, -1.128010413219068E+08, -3.888527065281162E+08, 6.753732638155030E+07,
2460924.500000000, A.D. 2025-Sep-06 00:00:00.0000, -1.015462945747563E+08, -3.911694467676940E+08, 6.697179731830432E+07,
2460931.500000000, A.D. 2025-Sep-13 00:00:00.0000, -9.021984583495995E+07, -3.932100251754562E+08, 6.635897608951820E+07,
2460938.500000000, A.D. 2025-Sep-20 00:00:00.0000, -7.882931660757241E+07, -3.949713712592920E+08, 6.569902059132560E+07,
2460945.500000000, A.D. 2025-Sep-27 00:00:00.0000, -6.738248011876279E+07, -3.964506541738141E+08, 6.499213695960039E+07,
2460952.500000000, A.D. 2025-Oct-04 00:00:00.0000, -5.588725151050127E+07, -3.976452918009108E+08, 6.423858014239959E+07,
2460959.500000000, A.D. 2025-Oct-11 00:00:00.0000, -4.435167787264463E+07, -3.985529592751676E+08, 6.343865441885842E+07,
2460966.500000000, A.D. 2025-Oct-18 00:00:00.0000, -3.278392784839296E+07, -3.991715971782011E+08, 6.259271381011944E+07,
2460973.500000000, A.D. 2025-Oct-25 00:00:00.0000, -2.119228069726104E+07, -3.994994193409850E+08, 6.170116236462349E+07,
2460980.500000000, A.D. 2025-Nov-01 00:00:00.0000, -9.585114803641766E+06, -3.995349201902027E+08, 6.076445431013279E+07,
2460987.500000000, A.D. 2025-Nov-08 00:00:00.0000, 2.029104371882331E+06, -3.992768816240302E+08, 5.978309406237526E+07,
2460994.500000000, A.D. 2025-Nov-15 00:00:00.0000, 1.364183700992279E+07, -3.987243794326036E+08, 5.875763606855682E+07,
2461001.500000000, A.D. 2025-Nov-22 00:00:00.0000, 2.524448268003191E+07, -3.978767890023229E+08, 5.768868446413374E+07,
2461008.500000000, A.D. 2025-Nov-29 00:00:00.0000, 3.682839492040386E+07, -3.967337891308393E+08, 5.657689264758971E+07,
2461015.500000000, A.D. 2025-Dec-06 00:00:00.0000, 4.838489432320634E+07, -3.952953640529101E+08, 5.542296296936969E+07,
2461022.500000000, A.D. 2025-Dec-13 00:00:00.0000, 5.990528050774524E+07, -3.935618070146481E+08, 5.422764621871215E+07,
2461029.500000000, A.D. 2025-Dec-20 00:00:00.0000, 7.138084642067271E+07, -3.915337243460566E+08, 5.299174067197712E+07,
2461036.500000000, A.D. 2025-Dec-27 00:00:00.0000, 8.280289383144364E+07, -3.892120374190849E+08, 5.171609101442161E+07,
2461043.500000000, A.D. 2026-Jan-03 00:00:00.0000, 9.416274850222269E+07, -3.865979830881250E+08, 5.040158722101812E+07,
2461050.500000000, A.D. 2026-Jan-10 00:00:00.0000, 1.054517750786752E+08, -3.836931132757590E+08, 4.904916333299488E+07,
2461057.500000000, A.D. 2026-Jan-17 00:00:00.0000, 1.166613918708684E+08, -3.804992937829020E+08, 4.765979610400937E+07,
2461064.500000000, A.D. 2026-Jan-24 00:00:00.0000, 1.277830855401170E+08, -3.770187022937367E+08, 4.623450351446813E+07,
2461071.500000000, A.D. 2026-Jan-31 00:00:00.0000, 1.388084256544946E+08, -3.732538255832336E+08, 4.477434315665735E+07,
2461078.500000000, A.D. 2026-Feb-07 00:00:00.0000, 1.497290791143841E+08, -3.692074559931611E+08, 4.328041048755115E+07,
2461085.500000000, A.D. 2026-Feb-14 00:00:00.0000, 1.605368246405488E+08, -3.648826872079826E+08, 4.175383693340607E+07,
2461092.500000000, A.D. 2026-Feb-21 00:00:00.0000, 1.712235676510622E+08, -3.602829087754081E+08, 4.019578786688113E+07,
2461099.500000000, A.D. 2026-Feb-28 00:00:00.0000, 1.817813543812638E+08, -3.554117982436351E+08, 3.860746065941329E+07,
2461106.500000000, A.D. 2026-Mar-07 00:00:00.0000, 1.922023831289513E+08, -3.502733128928671E+08, 3.699008284679462E+07,
2461113.500000000, A.D. 2026-Mar-14 00:00:00.0000, 2.024790153454975E+08, -3.448716834242110E+08, 3.534490997127765E+07,
2461120.500000000, A.D. 2026-Mar-21 00:00:00.0000, 2.126037883059650E+08, -3.392114067443492E+08, 3.367322318308306E+07,
2461127.500000000, A.D. 2026-Mar-28 00:00:00.0000, 2.225694273026435E+08, -3.332972368593990E+08, 3.197632687999468E+07,
2461134.500000000, A.D. 2026-Apr-04 00:00:00.0000, 2.323688567155239E+08, -3.271341748891222E+08, 3.025554637198462E+07,
2461141.500000000, A.D. 2026-Apr-11 00:00:00.0000, 2.419952101951130E+08, -3.207274586098735E+08, 2.851222552690391E+07,
2461148.500000000, A.D. 2026-Apr-18 00:00:00.0000, 2.514418400830092E+08, -3.140825515842568E+08, 2.674772439272709E+07,
2461155.500000000, A.D. 2026-Apr-25 00:00:00.0000, 2.607023260867857E+08, -3.072051319163629E+08, 2.496341680390491E+07,
2461162.500000000, A.D. 2026-May-02 00:00:00.0000, 2.697704832151309E+08, -3.001010807170837E+08, 2.316068797683612E+07,
2461169.500000000, A.D. 2026-May-09 00:00:00.0000, 2.786403690783455E+08, -2.927764704010128E+08, 2.134093208754228E+07,
2461176.500000000, A.D. 2026-May-16 00:00:00.0000, 2.873062909190311E+08, -2.852375527328247E+08, 1.950554981808926E+07,
2461183.500000000, A.D. 2026-May-23 00:00:00.0000, 2.957628124176393E+08, -2.774907456592578E+08, 1.765594596051702E+07,
2461190.500000000, A.D. 2026-May-30 00:00:00.0000, 3.040047581907961E+08, -2.695426186668087E+08, 1.579352730438548E+07,
2461197.500000000, A.D. 2026-Jun-06 00:00:00.0000, 3.120272156637955E+08, -2.613998799956891E+08, 1.391970057765166E+07,
2461204.500000000, A.D. 2026-Jun-13 00:00:00.0000, 3.198255379869426E+08, -2.530693655647500E+08, 1.203587012831108E+07,
2461211.500000000, A.D. 2026-Jun-20 00:00:00.0000, 3.273953475049555E+08, -2.445580267346487E+08, 1.014343563912353E+07,
2461218.500000000, A.D. 2026-Jun-27 00:00:00.0000, 3.347325380956232E+08, -2.358729173020352E+08, 8.243790010141462E+06,
2461225.500000000, A.D. 2026-Jul-04 00:00:00.0000, 3.418332763954637E+08, -2.270211805502614E+08, 6.338317351661712E+06,
2461232.500000000, A.D. 2026-Jul-11 00:00:00.0000, 3.486940021876289E+08, -2.180100365364081E+08, 4.428391058745459E+06,
2461239.500000000, A.D. 2026-Jul-18 00:00:00.0000, 3.553114280694586E+08, -2.088467696340924E+08, 2.515371965443790E+06,
2461246.500000000, A.D. 2026-Jul-25 00:00:00.0000, 3.616825384516758E+08, -1.995387163718612E+08, 6.006065805710852E+05,
2461253.500000000, A.D. 2026-Aug-01 00:00:00.0000, 3.678045879668078E+08, -1.900932536548170E+08, -1.314574600197062E+06,
2461260.500000000, A.D. 2026-Aug-08 00:00:00.0000, 3.736750995324700E+08, -1.805177874409016E+08, -3.228858726144195E+06,
2461267.500000000, A.D. 2026-Aug-15 00:00:00.0000, 3.792918625177628E+08, -1.708197414524955E+08, -5.140952166569486E+06,
2461274.500000000, A.D. 2026-Aug-22 00:00:00.0000, 3.846529302889082E+08, -1.610065447308146E+08, -7.049581857785724E+06,
2461281.500000000, A.D. 2026-Aug-29 00:00:00.0000, 3.897566148829992E+08, -1.510856194337540E+08, -8.953496323289737E+06,
2461288.500000000, A.D. 2026-Sep-05 00:00:00.0000, 3.946014809783470E+08, -1.410643717686168E+08, -1.085146679708607E+07,
2461295.500000000, A.D. 2026-Sep-12 00:00:00.0000, 3.991863416513104E+08, -1.309501835814041E+08, -1.274228847164975E+07,
$$EOE